NORAD_CAT_ID,OBJECT_NAME,OBJECT_TYPE,EPOCH,MEAN_MOTION,ECCENTRICITY,INCLINATION,RA_OF_ASC_NODE,ARG_OF_PERICENTER,MEAN_ANOMALY,BSTAR,MEAN_MOTION_DOT,MEAN_MOTION_DDOT,TLE_LINE0,TLE_LINE1,TLE_LINE2,SEMIMAJOR_AXIS,PERIOD,APOGEE,PERIGEE,DECAYED
51718.0,STARLINK-3546,PAYLOAD,2023-03-14 03:42:43,15.08847418,0.0001075,53.2164,189.2062,83.547,276.5644,1.4633e-05,-5.5e-07,0.0,0 STARLINK-3546,1 51718U 22016E   23073.15466548 -.00000055  00000-0  14633-4 0  9999,2 51718  53.2164 189.2062 0001075  83.5470 276.5644 15.08847418 59692,6917.858,95.437,540.466,538.979,0.0
51718.0,STARLINK-3546,PAYLOAD,2023-03-14 14:50:25,15.08854271,0.0001136,53.2163,187.1267,53.5973,306.5124,0.00023519,3.459e-05,0.0,0 STARLINK-3546,1 51718U 22016E   23073.61834495  .00003459  00000-0  23519-3 0  9992,2 51718  53.2163 187.1267 0001136  53.5973 306.5124 15.08854271 59836,6917.837,95.437,540.488,538.916,0.0
51718.0,STARLINK-3546,PAYLOAD,2023-03-14 16:25:47,15.08858604,0.0001268,53.2153,186.828,55.641,304.4702,0.00031121,4.671e-05,0.0,0 STARLINK-3546,1 51718U 22016E   23073.68458198  .00004671  00000-0  31121-3 0  9996,2 51718  53.2153 186.8280 0001268  55.6410 304.4702 15.08858604 59845,6917.824,95.436,540.566,538.811,0.0
51718.0,STARLINK-3546,PAYLOAD,2023-03-15 11:30:25,15.08856802,9.59e-05,53.216,183.2592,55.9927,304.1156,0.00023147,3.4e-05,0.0,0 STARLINK-3546,1 51718U 22016E   23074.47945820  .00003400  00000-0  23147-3 0  9995,2 51718  53.2160 183.2592 0000959  55.9927 304.1156 15.08856802 59895,6917.829,95.436,540.357,539.031,0.0
51718.0,STARLINK-3546,PAYLOAD,2023-03-15 16:16:33,15.08876195,0.0001066,53.2156,182.3665,61.7549,298.3551,0.00048124,7.387e-05,0.0,0 STARLINK-3546,1 51718U 22016E   23074.67816543  .00007387  00000-0  48124-3 0  9996,2 51718  53.2156 182.3665 0001066  61.7549 298.3551 15.08876195 59920,6917.77,95.435,540.372,538.897,0.0
51718.0,STARLINK-3546,PAYLOAD,2023-03-16 04:59:40,15.08822175,0.0001094,53.2159,179.9884,75.4464,284.665,-0.00028045,-4.746e-05,0.0,0 STARLINK-3546,1 51718U 22016E   23075.20811091 -.00004746  00000-0 -28045-3 0  9997,2 51718  53.2159 179.9884 0001094  75.4464 284.6650 15.08822175 60005,6917.935,95.439,540.557,539.043,0.0
51718.0,STARLINK-3546,PAYLOAD,2023-03-16 11:21:12,15.0882812,8.45e-05,53.2157,178.7993,89.524,270.5849,-0.00039589,-6.581e-05,0.0,0 STARLINK-3546,1 51718U 22016E   23075.47306258 -.00006581  00000-0 -39589-3 0  9994,2 51718  53.2157 178.7993 0000845  89.5240 270.5849 15.08828120 60046,6917.917,95.438,540.366,539.197,0.0
51718.0,STARLINK-3546,PAYLOAD,2023-03-17 12:47:24,15.0881972,9.96e-05,53.216,174.0417,94.5234,265.5871,-0.00012545,-2.283e-05,0.0,0 STARLINK-3546,1 51718U 22016E   23076.53292103 -.00002283  00000-0 -12545-3 0  9993,2 51718  53.2160 174.0417 0000996  94.5234 265.5871 15.08819720 60209,6917.942,95.439,540.496,539.118,0.0
51718.0,STARLINK-3546,PAYLOAD,2023-03-18 03:05:52,15.08841879,0.0001083,53.216,171.366,92.5603,267.5513,0.00068038,0.00010557,0.0,0 STARLINK-3546,1 51718U 22016E   23077.12908221  .00010557  00000-0  68038-3 0  9993,2 51718  53.2160 171.3660 0001083  92.5603 267.5513 15.08841879 60299,6917.875,95.437,540.489,538.99,0.0
51718.0,STARLINK-3546,PAYLOAD,2023-03-18 12:38:10,15.08877445,0.0001116,53.2161,169.5809,102.3796,257.7321,0.0015572,0.00024607,0.0,0 STARLINK-3546,1 51718U 22016E   23077.52651429  .00024607  00000-0  15572-2 0  9997,2 51718  53.2161 169.5809 0001116 102.3796 257.7321 15.08877445 60357,6917.766,95.435,540.403,538.859,0.0
51718.0,STARLINK-3546,PAYLOAD,2023-03-19 06:07:25,15.08842846,0.0001177,53.2167,166.3103,356.0695,4.0288,0.00069305,0.0001076,0.0,0 STARLINK-3546,1 51718U 22016E   23078.25515134  .00010760  00000-0  69305-3 0  9999,2 51718  53.2167 166.3103 0001177 356.0695   4.0288 15.08842846 60462,6917.872,95.437,540.551,538.922,0.0
51718.0,STARLINK-3546,PAYLOAD,2023-03-19 12:28:57,15.08852329,0.0001144,53.2167,165.1209,119.8424,240.2682,0.002047,0.00032451,0.0,0 STARLINK-3546,1 51718U 22016E   23078.52010741  .00032451  00000-0  20470-2 0  9993,2 51718  53.2167 165.1209 0001144 119.8424 240.2682 15.08852329 60576,6917.843,95.437,540.499,538.916,0.0
51718.0,STARLINK-3546,PAYLOAD,2023-03-20 05:58:12,15.08855026,0.0001268,53.2168,161.8502,109.9115,250.2014,0.0019231,0.00030463,0.0,0 STARLINK-3546,1 51718U 22016E   23079.24875328  .00030463  00000-0  19231-2 0  9997,2 51718  53.2168 161.8502 0001268 109.9115 250.2014 15.08855026 60612,6917.834,95.437,540.577,538.822,0.0
51718.0,STARLINK-3546,PAYLOAD,2023-03-20 12:19:44,15.0885699,0.0001035,53.2169,160.6605,96.0387,264.0723,0.0016539,0.00026144,0.0,0 STARLINK-3546,1 51718U 22016E   23079.51371357  .00026144  00000-0  16539-2 0  9999,2 51718  53.2169 160.6605 0001035  96.0387 264.0723 15.08856990 60658,6917.828,95.436,540.409,538.977,0.0
51718.0,STARLINK-3546,PAYLOAD,2023-03-21 05:48:59,15.08863877,0.0001119,53.2167,157.3905,88.9328,271.1793,0.0018494,0.00029287,0.0,0 STARLINK-3546,1 51718U 22016E   23080.24235433  .00029287  00000-0  18494-2 0  9998,2 51718  53.2167 157.3905 0001119  88.9328 271.1793 15.08863877 60760,6917.807,95.436,540.447,538.898,0.0
51718.0,STARLINK-3546,PAYLOAD,2023-03-21 12:10:31,15.08849526,9.33e-05,53.2167,156.201,82.4029,277.7069,0.0019705,0.0003122,0.0,0 STARLINK-3546,1 51718U 22016E   23080.50731393  .00031220  00000-0  19705-2 0  9999,2 51718  53.2167 156.2010 0000933  82.4029 277.7069 15.08849526 60870,6917.851,95.437,540.362,539.071,0.0
51718.0,STARLINK-3546,PAYLOAD,2023-03-21 21:42:50,15.08851803,0.0001161,53.217,154.4166,90.2469,269.8656,0.00092989,0.00014547,0.0,0 STARLINK-3546,1 51718U 22016E   23080.90475471  .00014547  00000-0  92989-3 0  9994,2 51718  53.2170 154.4166 0001161  90.2469 269.8656 15.08851803 60937,6917.844,95.437,540.512,538.906,0.0
51718.0,STARLINK-3546,PAYLOAD,2023-03-21 23:18:13,15.08846953,0.0001221,53.2164,154.1203,97.0716,263.0415,0.00063058,9.764e-05,0.0,0 STARLINK-3546,1 51718U 22016E   23080.97099524  .00009764  00000-0  63058-3 0  9992,2 51718  53.2164 154.1203 0001221  97.0716 263.0415 15.08846953 60878,6917.859,95.437,540.569,538.879,0.0
51718.0,STARLINK-3546,PAYLOAD,2023-03-22 12:01:18,15.08849601,0.0001171,53.2163,151.741,96.6532,263.4593,0.00030764,4.613e-05,0.0,0 STARLINK-3546,1 51718U 22016E   23081.50091225  .00004613  00000-0  30764-3 0  9998,2 51718  53.2163 151.7410 0001171  96.6532 263.4593 15.08849601 60958,6917.851,95.437,540.526,538.906,0.0
51718.0,STARLINK-3546,PAYLOAD,2023-03-23 03:55:10,15.08846676,0.0001593,53.217,148.7711,67.321,292.795,0.00022961,3.369e-05,0.0,0 STARLINK-3546,1 51718U 22016E   23082.16331434  .00003369  00000-0  22961-3 0  9997,2 51718  53.2170 148.7711 0001593  67.3210 292.7950 15.08846676 61055,6917.86,95.437,540.827,538.623,0.0
51718.0,STARLINK-3546,PAYLOAD,2023-03-23 11:52:06,15.08845721,0.0001497,53.217,147.2816,72.4229,287.6927,0.00017566,2.509e-05,0.0,0 STARLINK-3546,1 51718U 22016E   23082.49451404  .00002509  00000-0  17566-3 0  9993,2 51718  53.2170 147.2816 0001497  72.4229 287.6927 15.08845721 61175,6917.863,95.437,540.764,538.692,0.0
51718.0,STARLINK-3546,PAYLOAD,2023-03-23 21:24:24,15.08847146,0.0001412,53.2169,145.4979,83.6803,276.435,0.00017731,2.536e-05,0.0,0 STARLINK-3546,1 51718U 22016E   23082.89195235  .00002536  00000-0  17731-3 0  9998,2 51718  53.2169 145.4979 0001412  83.6803 276.4350 15.08847146 61238,6917.859,95.437,540.7,538.747,0.0
51718.0,STARLINK-3546,PAYLOAD,2023-03-24 05:21:19,15.08864002,0.0001311,53.2158,144.0099,81.864,278.2501,0.00054481,8.399e-05,0.0,0 STARLINK-3546,1 51718U 22016E   23083.22314690  .00008399  00000-0  54481-3 0  9990,2 51718  53.2158 144.0099 0001311  81.8640 278.2501 15.08864002 61217,6917.807,95.436,540.579,538.765,0.0
51718.0,STARLINK-3546,PAYLOAD,2023-03-24 10:07:28,15.08890333,0.0001509,53.2163,143.1209,73.7367,286.3791,0.00125,0.00019689,0.0,0 STARLINK-3546,1 51718U 22016E   23083.42185898  .00019689  00000-0  12500-2 0  9997,2 51718  53.2163 143.1209 0001509  73.7367 286.3791 15.08890333 61241,6917.727,95.434,540.635,538.548,0.0
51718.0,STARLINK-3546,PAYLOAD,2023-03-24 21:15:10,15.08861192,0.0001302,53.2164,141.0363,85.2773,274.8368,0.00031517,4.734e-05,0.0,0 STARLINK-3546,1 51718U 22016E   23083.88553806  .00004734  00000-0  31517-3 0  9990,2 51718  53.2164 141.0363 0001302  85.2773 274.8368 15.08861192 61388,6917.816,95.436,540.581,538.78,0.0
51718.0,STARLINK-3546,PAYLOAD,2023-03-25 03:36:43,15.0883811,0.0001138,53.2151,139.8472,91.823,268.2893,-0.00037238,-6.209e-05,0.0,0 STARLINK-3546,1 51718U 22016E   23084.15050127 -.00006209  00000-0 -37238-3 0  9996,2 51718  53.2151 139.8472 0001138  91.8230 268.2893 15.08838110 61359,6917.886,95.438,540.538,538.964,0.0
51718.0,STARLINK-3546,PAYLOAD,2023-03-25 09:58:15,15.08847202,0.0001553,53.2143,138.6596,84.8948,275.2221,2.9309e-05,1.79e-06,0.0,0 STARLINK-3546,1 51718U 22016E   23084.41545978  .00000179  00000-0  29309-4 0  9997,2 51718  53.2143 138.6596 0001553  84.8948 275.2221 15.08847202 61392,6917.858,95.437,540.798,538.649,0.0
51718.0,STARLINK-3546,PAYLOAD,2023-03-25 21:05:57,15.08851686,0.000129,53.214,136.5765,88.2637,271.8503,0.00025773,3.818e-05,0.0,0 STARLINK-3546,1 51718U 22016E   23084.87913560  .00003818  00000-0  25773-3 0  9996,2 51718  53.2140 136.5765 0001290  88.2637 271.8503 15.08851686 61537,6917.845,95.437,540.602,538.817,0.0
51718.0,STARLINK-3546,PAYLOAD,2023-03-26 09:49:02,15.08841537,0.000164,53.2162,134.1934,118.5736,241.5421,-3.4324e-07,-2.94e-06,0.0,0 STARLINK-3546,1 51718U 22016E   23085.40905746 -.00000294  00000-0 -34324-6 0  9995,2 51718  53.2162 134.1934 0001640 118.5736 241.5421 15.08841537 61615,6917.876,95.437,540.875,538.606,0.0
51718.0,STARLINK-3546,PAYLOAD,2023-03-27 03:18:18,15.08823082,0.0001421,53.2166,130.9262,100.6158,259.4994,-1.4275e-05,-5.15e-06,0.0,0 STARLINK-3546,1 51718U 22016E   23086.13771275 -.00000515  00000-0 -14275-4 0  9991,2 51718  53.2166 130.9262 0001421 100.6158 259.4994 15.08823082 61656,6917.932,95.439,540.78,538.814,0.0
